NORAD_CAT_ID,OBJECT_NAME,OBJECT_TYPE,EPOCH,MEAN_MOTION,ECCENTRICITY,INCLINATION,RA_OF_ASC_NODE,ARG_OF_PERICENTER,MEAN_ANOMALY,BSTAR,MEAN_MOTION_DOT,MEAN_MOTION_DDOT,TLE_LINE0,TLE_LINE1,TLE_LINE2,SEMIMAJOR_AXIS,PERIOD,APOGEE,PERIGEE,DECAYED
49436.0,STARLINK-3049,PAYLOAD,2022-01-12 16:00:00,15.73228966,0.00024,53.2162,195.4416,19.7501,128.1832,-1.407e-05,-2.599e-05,0.0,0 STARLINK-3049,1 49436U 21104AE  22012.66667824 -.00002599  00000-0 -14070-4 0  9999,2 49436  53.2162 195.4416 0002400  19.7501 128.1832 15.73228966 10742,6727.813,91.531,351.292,348.06300000000016,0.0
49436.0,STARLINK-3049,PAYLOAD,2022-01-12 22:00:00,15.73201436,0.00026,53.2163,194.2057,17.8554,106.8017,0.00054378,0.00076405,0.0,0 STARLINK-3049,1 49436U 21104AE  22012.91667824  .00076405  00000-0  54378-3 0  9996,2 49436  53.2163 194.2057 0002600  17.8554 106.8017 15.73201436 10774,6727.891,91.533,351.505,348.00699999999995,0.0
49436.0,STARLINK-3049,PAYLOAD,2022-01-13 14:00:01,15.73226843,0.0002378,53.2158,190.905,16.1106,286.4965,1.1019e-05,9.26e-06,0.0,0 STARLINK-3049,1 49436U 21104AE  22013.58334491  .00000926  00000-0  11019-4 0  9992,2 49436  53.2158 190.9050 0002378  16.1106 286.4965 15.73226843 10889,6727.819,91.532,351.284,348.084,0.0
49436.0,STARLINK-3049,PAYLOAD,2022-01-13 22:00:00,15.73225,0.0002702,53.2156,189.2573,15.3347,16.2363,0.00011636,0.00015758,0.0,0 STARLINK-3049,1 49436U 21104AE  22013.91667824  .00015758  00000-0  11636-3 0  9991,2 49436  53.2156 189.2573 0002702  15.3347  16.2363 15.73225000  3671,6727.824000000001,91.532,351.50699999999995,347.871,0.0
49436.0,STARLINK-3049,PAYLOAD,2022-01-14 14:00:01,15.73242332,0.0002592,53.2159,185.9563,21.308000000000003,188.1673,-0.00033314,-0.00047207,0.0,0 STARLINK-3049,1 49436U 21104AE  22014.58334491 -.00047207  00000-0 -33314-3 0  9999,2 49436  53.2159 185.9563 0002592  21.3080 188.1673 15.73242332  3685,6727.774,91.531,351.3830000000001,347.896,0.0
49436.0,STARLINK-3049,PAYLOAD,2022-01-14 22:00:00,15.73167824,0.0002888,53.2158,184.3084,16.4842,281.9744,0.00040767,0.00056911,0.0,0 STARLINK-3049,1 49436U 21104AE  22014.91667824  .00056911  00000-0  40767-3 0  9995,2 49436  53.2158 184.3084 0002888  16.4842 281.9744 15.73167824 11091,6727.986999999999,91.535,351.795,347.909,0.0
49436.0,STARLINK-3049,PAYLOAD,2022-01-15 14:00:01,15.73248915,0.0002674,53.2156,181.0081,12.5209,103.8101,-4.8997e-05,-7.509e-05,0.0,0 STARLINK-3049,1 49436U 21104AE  22015.58335648 -.00007509  00000-0 -48997-4 0  9990,2 49436  53.2156 181.0081 0002674  12.5209 103.8101 15.73248915 11198,6727.755999999999,91.53,351.42,347.82199999999995,0.0
49436.0,STARLINK-3049,PAYLOAD,2022-01-15 22:00:01,15.73218083,0.0002917,53.2153,179.36,9.6706,195.6334,-0.00034474,-0.00048774,0.0,0 STARLINK-3049,1 49436U 21104AE  22015.91668981 -.00048774  00000-0 -34474-3 0  9999,2 49436  53.2153 179.3600 0002917   9.6706 195.6334 15.73218083 11258,6727.844,91.532,351.671,347.746,0.0
49436.0,STARLINK-3049,PAYLOAD,2022-01-16 14:00:01,15.73149429,0.0002847,53.2159,176.0596,9.9101,13.1407,9.6193e-05,0.00012872,0.0,0 STARLINK-3049,1 49436U 21104AE  22016.58334491  .00012872  00000-0  96193-4 0  9994,2 49436  53.2159 176.0596 0002847   9.9101  13.1407 15.73149429  3710,6728.0390000000025,91.536,351.82,347.98900000000015,0.0
49436.0,STARLINK-3049,PAYLOAD,2022-01-16 22:00:00,15.73141978,0.0003132,53.2158,174.4116,9.3591,102.5634,0.00063535,0.00089292,0.0,0 STARLINK-3049,1 49436U 21104AE  22016.91667824  .00089292  00000-0  63535-3 0  9993,2 49436  53.2158 174.4116 0003132   9.3591 102.5634 15.73141978  3697,6728.061,91.537,352.033,347.8180000000001,0.0
49436.0,STARLINK-3049,PAYLOAD,2022-01-17 00:00:00,15.73176331,0.0003108,53.2156,173.9987,9.1517,214.9782,0.00022943,0.00031672,0.0,0 STARLINK-3049,1 49436U 21104AE  22017.00001157  .00031672  00000-0  22943-3 0  9992,2 49436  53.2156 173.9987 0003108   9.1517 214.9782 15.73176331 11427,6727.9630000000025,91.535,351.9190000000001,347.737,0.0
49436.0,STARLINK-3049,PAYLOAD,2022-01-17 14:00:01,15.73263933,0.0003023,53.2158,171.1117,8.6948,281.0399,-0.00071108,-0.00099546,0.0,0 STARLINK-3049,1 49436U 21104AE  22017.58334491 -.00099546  00000-0 -71108-3 0  9998,2 49436  53.2158 171.1117 0003023   8.6948 281.0399 15.73263933  3708,6727.7130000000025,91.529,351.612,347.5440000000001,0.0
49436.0,STARLINK-3049,PAYLOAD,2022-01-17 22:00:00,15.73168422,0.0003275,53.2155,169.4634,5.9565,12.7297,0.00050776,0.00071163,0.0,0 STARLINK-3049,1 49436U 21104AE  22017.91667824  .00071163  00000-0  50776-3 0  9995,2 49436  53.2155 169.4634 0003275   5.9565  12.7297 15.73168422 11569,6727.985,91.535,352.05400000000014,347.647,0.0
49436.0,STARLINK-3049,PAYLOAD,2022-01-18 14:00:01,15.73257833,0.0003178,53.2163,166.1633,7.9625,188.5873,-1.9364e-05,-3.348e-05,0.0,0 STARLINK-3049,1 49436U 21104AE  22018.58334491 -.00003348  00000-0 -19364-4 0  9991,2 49436  53.2163 166.1633 0003178   7.9625 188.5873 15.73257833 11671,6727.73,91.53,351.733,347.457,0.0
49436.0,STARLINK-3049,PAYLOAD,2022-01-18 22:00:00,15.73261161,0.0003436,53.2162,164.5146,5.6468,279.9137,-0.00030381,-0.0004317,0.0,0 STARLINK-3049,1 49436U 21104AE  22018.91667824 -.00043170  00000-0 -30381-3 0  9995,2 49436  53.2162 164.5146 0003436   5.6468 279.9137 15.73261161  3687,6727.721,91.53,351.897,347.274,0.0
49436.0,STARLINK-3049,PAYLOAD,2022-01-19 06:00:02,15.73185822,0.0003283,53.2163,162.863,9.1701,5.4578,0.00031413,0.00043676,0.0,0 STARLINK-3049,1 49436U 21104AE  22019.25002315  .00043676  00000-0  31413-3 0  9997,2 49436  53.2163 162.8630 0003283   9.1701   5.4578 15.73185822 11775,6727.936,91.534,352.009,347.592,0.0
49436.0,STARLINK-3049,PAYLOAD,2022-01-19 14:00:01,15.73222071,0.000351,53.2162,161.2151,13.0088,90.4963,-0.00035268,-0.00049892,0.0,0 STARLINK-3049,1 49436U 21104AE  22019.58334491 -.00049892  00000-0 -35268-3 0  9996,2 49436  53.2162 161.2151 0003510  13.0088  90.4963 15.73222071  3669,6727.831999999999,91.532,352.059,347.336,0.0
49436.0,STARLINK-3049,PAYLOAD,2022-01-19 22:00:00,15.73195447,0.0003681,53.2158,159.5663,13.637,178.7975,0.0004095,0.00057246,0.0,0 STARLINK-3049,1 49436U 21104AE  22019.91667824  .00057246  00000-0  40950-3 0  9996,2 49436  53.2158 159.5663 0003681  13.6370 178.7975 15.73195447 11883,6727.908,91.533,352.25,347.297,0.0
49436.0,STARLINK-3049,PAYLOAD,2022-01-20 06:00:00,15.73226738,0.0003392,53.2162,157.9148,12.6675,268.7047,-0.00018266,-0.00026217,0.0,0 STARLINK-3049,1 49436U 21104AE  22020.25001157 -.00026217  00000-0 -18266-3 0  9997,2 49436  53.2162 157.9148 0003392  12.6675 268.7047 15.73226738 11938,6727.819,91.532,351.966,347.402,0.0
49436.0,STARLINK-3049,PAYLOAD,2022-01-20 14:00:01,15.73199395,0.0003554,53.2165,156.2667,9.8906,0.418,-0.00058958,-0.00082591,0.0,0 STARLINK-3049,1 49436U 21104AE  22020.58334491 -.00082591  00000-0 -58958-3 0  9992,2 49436  53.2165 156.2667 0003554   9.8906   0.4180 15.73199395 11986,6727.897,91.533,352.153,347.371,0.0
49436.0,STARLINK-3049,PAYLOAD,2022-01-20 22:00:00,15.731501000000002,0.0003764,53.2164,154.6179,8.3383,90.8548,0.0002313,0.00031903,0.0,0 STARLINK-3049,1 49436U 21104AE  22020.91667824  .00031903  00000-0  23130-3 0  9991,2 49436  53.2164 154.6179 0003764   8.3383  90.8548 15.73150100  3681,6728.0369999999975,91.536,352.435,347.37,0.0
49436.0,STARLINK-3049,PAYLOAD,2022-01-21 08:00:01,15.73165452,0.0003557,53.2166,152.5544,10.6104,289.6843,0.0004174,0.00058293,0.0,0 STARLINK-3049,1 49436U 21104AE  22021.33334491  .00058293  00000-0  41740-3 0  9997,2 49436  53.2166 152.5544 0003557  10.6104 289.6843 15.73165452 12102,6727.994000000002,91.535,352.25199999999984,347.466,0.0
49436.0,STARLINK-3049,PAYLOAD,2022-01-21 14:00:01,15.73203002,0.0003792,53.2163,151.3192,10.8015,266.1752,3.5468e-05,4.358e-05,0.0,0 STARLINK-3049,1 49436U 21104AE  22021.58334491  .00004358  00000-0  35468-4 0  9998,2 49436  53.2163 151.3192 0003792  10.8015 266.1752 15.73203002  3663,6727.887,91.533,352.30300000000005,347.2,0.0
49436.0,STARLINK-3049,PAYLOAD,2022-01-21 22:00:00,15.73221593,0.0003913,53.2158,149.6699,10.2212,355.6845,0.00015006,0.00020515,0.0,0 STARLINK-3049,1 49436U 21104AE  22021.91667824  .00020515  00000-0  15006-3 0  9992,2 49436  53.2158 149.6699 0003913  10.2212 355.6845 15.73221593  3692,6727.834,91.532,352.331,347.066,0.0
49436.0,STARLINK-3049,PAYLOAD,2022-01-22 06:00:00,15.7324811,0.0003662,53.216,148.0185,10.9124,83.9658,1.7502999999999998e-05,1.838e-05,0.0,0 STARLINK-3049,1 49436U 21104AE  22022.25001157  .00001838  00000-0  17503-4 0  9993,2 49436  53.2160 148.0185 0003662  10.9124  83.9658 15.73248110 12246,6727.7580000000025,91.53,352.087,347.159,0.0
49436.0,STARLINK-3049,PAYLOAD,2022-01-22 14:00:01,15.73218119,0.0003903,53.2162,146.3706,9.4765,174.3973,8.0949e-05,0.00010764,0.0,0 STARLINK-3049,1 49436U 21104AE  22022.58334491  .00010764  00000-0  80949-4 0  9991,2 49436  53.2162 146.3706 0003903   9.4765 174.3973 15.73218119  3667,6727.844,91.532,352.334,347.083,0.0
49436.0,STARLINK-3049,PAYLOAD,2022-01-22 22:00:00,15.732692300000002,0.0003978,53.2161,144.721,7.595,265.2228,-0.00031574,-0.00044854,0.0,0 STARLINK-3049,1 49436U 21104AE  22022.91667824 -.00044854  00000-0 -31574-3 0  9995,2 49436  53.2161 144.7210 0003978   7.5950 265.2228 15.73269230  3691,6727.698,91.529,352.23900000000015,346.88699999999994,0.0
49436.0,STARLINK-3049,PAYLOAD,2022-01-23 06:00:00,15.73215551,0.0003821,53.2161,143.0698,9.3053,352.5113,-0.00036731,-0.00051914,0.0,0 STARLINK-3049,1 49436U 21104AE  22023.25001157 -.00051914  00000-0 -36731-3 0  9999,2 49436  53.2161 143.0698 0003821   9.3053 352.5113 15.73215551 12403,6727.851,91.532,352.287,347.145,0.0
49436.0,STARLINK-3049,PAYLOAD,2022-01-23 14:00:01,15.73174236,0.000411,53.2157,141.4223,11.2123,79.5407,7.5573e-05,9.987e-05,0.0,0 STARLINK-3049,1 49436U 21104AE  22023.58334491  .00009987  00000-0  75573-4 0  9994,2 49436  53.2157 141.4223 0004110  11.2123  79.5407 15.73174236  3693,6727.969,91.535,352.599,347.0680000000001,0.0
